STARLINK-1031_new
1 14736C 19074Z   21326.16720347  .00005504  00000-0  36878-3 0  3262
2 14736  53.0554  47.9985 0001330  80.0021 164.6059 15.06391802    15
STARLINK-1031_old
1 24736C 19074Z   21325.13715350 -.00003778  00000-0 -25304-3 0  3250
2 24736  53.0554  52.6224 0001314  79.6437 335.8457 15.06411761    12
